$$SOE
2460147.500000000, A.D. 2023-Jul-22 00:00:00.0000, 7.806720578165323E+07, -4.744254482793961E+08, 6.462558054168300E+07,
2460154.500000000, A.D. 2023-Jul-29 00:00:00.0000, 8.788278511964360E+07, -4.728704095116687E+08, 6.483363623459311E+07,
2460161.500000000, A.D. 2023-Aug-05 00:00:00.0000, 9.766099350934805E+07, -4.711145484539988E+08, 6.501415726937918E+07,
2460168.500000000, A.D. 2023-Aug-12 00:00:00.0000, 1.073977235008520E+08, -4.691588416211483E+08, 6.516709875649725E+07,
2460175.500000000, A.D. 2023-Aug-19 00:00:00.0000, 1.170888941726118E+08, -4.670043452648741E+08, 6.529242712328339E+07,
2460182.500000000, A.D. 2023-Aug-26 00:00:00.0000, 1.267304525478046E+08, -4.646521945130882E+08, 6.539012007837066E+07,
2460189.500000000, A.D. 2023-Sep-02 00:00:00.0000, 1.363183749655796E+08, -4.621036025631638E+08, 6.546016656844170E+07,
2460196.500000000, A.D. 2023-Sep-09 00:00:00.0000, 1.458486684433880E+08, -4.593598599714261E+08, 6.550256672074883E+07,
2460203.500000000, A.D. 2023-Sep-16 00:00:00.0000, 1.553173721987207E+08, -4.564223340974833E+08, 6.551733175136377E+07,
2460210.500000000, A.D. 2023-Sep-23 00:00:00.0000, 1.647205597467146E+08, -4.532924684174587E+08, 6.550448382465567E+07,
2460217.500000000, A.D. 2023-Sep-30 00:00:00.0000, 1.740543412339005E+08, -4.499717805163478E+08, 6.546405599274302E+07,
2460224.500000000, A.D. 2023-Oct-07 00:00:00.0000, 1.833148636538065E+08, -4.464618593026147E+08, 6.539609238652143E+07,
2460231.500000000, A.D. 2023-Oct-14 00:00:00.0000, 1.924983099840944E+08, -4.427643647574686E+08, 6.530064829192546E+07,
2460238.500000000, A.D. 2023-Oct-21 00:00:00.0000, 2.016009004745300E+08, -4.388810286159241E+08, 6.517778994631401E+07,
2460245.500000000, A.D. 2023-Oct-28 00:00:00.0000, 2.106188946621802E+08, -4.348136537204362E+08, 6.502759437077823E+07,
2460252.500000000, A.D. 2023-Nov-04 00:00:00.0000, 2.195485928640828E+08, -4.305641128183881E+08, 6.485014929052524E+07,
2460259.500000000, A.D. 2023-Nov-11 00:00:00.0000, 2.283863373250950E+08, -4.261343474038911E+08, 6.464555307839516E+07,
2460266.500000000, A.D. 2023-Nov-18 00:00:00.0000, 2.371285132405327E+08, -4.215263666686950E+08, 6.441391469644672E+07,
2460273.500000000, A.D. 2023-Nov-25 00:00:00.0000, 2.457715497264497E+08, -4.167422465400556E+08, 6.415535363102542E+07,
2460280.500000000, A.D. 2023-Dec-02 00:00:00.0000, 2.543119207657151E+08, -4.117841288169307E+08, 6.386999981792468E+07,
2460287.500000000, A.D. 2023-Dec-09 00:00:00.0000, 2.627461462078937E+08, -4.066542204633583E+08, 6.355799354569010E+07,
2460294.500000000, A.D. 2023-Dec-16 00:00:00.0000, 2.710707931111208E+08, -4.013547930465599E+08, 6.321948531179500E+07,
2460301.500000000, A.D. 2023-Dec-23 00:00:00.0000, 2.792824777752991E+08, -3.958881816331177E+08, 6.285463565616718E+07,
2460308.500000000, A.D. 2023-Dec-30 00:00:00.0000, 2.873778671268023E+08, -3.902567820952880E+08, 6.246361518099746E+07,
2460315.500000000, A.D. 2024-Jan-06 00:00:00.0000, 2.953536776817263E+08, -3.844630491887001E+08, 6.204660472628476E+07,
2460322.500000000, A.D. 2024-Jan-13 00:00:00.0000, 3.032066752600795E+08, -3.785094972076454E+08, 6.160379526188283E+07,
2460329.500000000, A.D. 2024-Jan-20 00:00:00.0000, 3.109336766751704E+08, -3.723987001331474E+08, 6.113538763562728E+07,
2460336.500000000, A.D. 2024-Jan-27 00:00:00.0000, 3.185315513702815E+08, -3.661332906222521E+08, 6.064159241691379E+07,
2460343.500000000, A.D. 2024-Feb-03 00:00:00.0000, 3.259972225747256E+08, -3.597159587877420E+08, 6.012262979743862E+07,
2460350.500000000, A.D. 2024-Feb-10 00:00:00.0000, 3.333276682570441E+08, -3.531494510597998E+08, 5.957872949977899E+07,
2460357.500000000, A.D. 2024-Feb-17 00:00:00.0000, 3.405199220144628E+08, -3.464365691221131E+08, 5.901013068168864E+07,
2460364.500000000, A.D. 2024-Feb-24 00:00:00.0000, 3.475710739348752E+08, -3.395801689081160E+08, 5.841708183399652E+07,
2460371.500000000, A.D. 2024-Mar-02 00:00:00.0000, 3.544782714607704E+08, -3.325831596903123E+08, 5.779984066669194E+07,
2460378.500000000, A.D. 2024-Mar-09 00:00:00.0000, 3.612387203937811E+08, -3.254485033256627E+08, 5.715867396517366E+07,
2460385.500000000, A.D. 2024-Mar-16 00:00:00.0000, 3.678496864351977E+08, -3.181792134597121E+08, 5.649385739643046E+07,
2460392.500000000, A.D. 2024-Mar-23 00:00:00.0000, 3.743084971591758E+08, -3.107783535808210E+08, 5.580567536538738E+07,
2460399.500000000, A.D. 2024-Mar-30 00:00:00.0000, 3.806125421771479E+08, -3.032490339520755E+08, 5.509442112479995E+07,
2460406.500000000, A.D. 2024-Apr-06 00:00:00.0000, 3.867592717479786E+08, -2.955944107879516E+08, 5.436039683945600E+07,
2460413.500000000, A.D. 2024-Apr-13 00:00:00.0000, 3.927461973843156E+08, -2.878176868372390E+08, 5.360391334670337E+07,
2460420.500000000, A.D. 2024-Apr-20 00:00:00.0000, 3.985708935043250E+08, -2.799221106943880E+08, 5.282528991944575E+07,
2460427.500000000, A.D. 2024-Apr-27 00:00:00.0000, 4.042309986136693E+08, -2.719109754009820E+08, 5.202485412538613E+07,
2460434.500000000, A.D. 2024-May-04 00:00:00.0000, 4.097242161069717E+08, -2.637876170416273E+08, 5.120294171751481E+07,
2460441.500000000, A.D. 2024-May-11 00:00:00.0000, 4.150483149277717E+08, -2.555554134369055E+08, 5.035989652608185E+07,
2460448.500000000, A.D. 2024-May-18 00:00:00.0000, 4.202011301690964E+08, -2.472177829122885E+08, 4.949607034658290E+07,
2460455.500000000, A.D. 2024-May-25 00:00:00.0000, 4.251805636391763E+08, -2.387781831502921E+08, 4.861182282107450E+07,
2460462.500000000, A.D. 2024-Jun-01 00:00:00.0000, 4.299845844516361E+08, -2.302401101831015E+08, 4.770752130269393E+07,
2460469.500000000, A.D. 2024-Jun-08 00:00:00.0000, 4.346112298857837E+08, -2.216070975478760E+08, 4.678354067886652E+07,
2460476.500000000, A.D. 2024-Jun-15 00:00:00.0000, 4.390586069163084E+08, -2.128827150583728E+08, 4.584026316119262E+07,
2460483.500000000, A.D. 2024-Jun-22 00:00:00.0000, 4.433248934082790E+08, -2.040705660171517E+08, 4.487807823076905E+07,
2460490.500000000, A.D. 2024-Jun-29 00:00:00.0000, 4.474083368567806E+08, -1.951742846899430E+08, 4.389738278529575E+07,
2460497.500000000, A.D. 2024-Jul-06 00:00:00.0000, 4.513072533152974E+08, -1.861975365135174E+08, 4.289858104339163E+07,
2460504.500000000, A.D. 2024-Jul-13 00:00:00.0000, 4.550200284612530E+08, -1.771440182119445E+08, 4.188208425797808E+07,
2460511.500000000, A.D. 2024-Jul-20 00:00:00.0000, 4.585451188134171E+08, -1.680174566719570E+08, 4.084831051487030E+07,
2460518.500000000, A.D. 2024-Jul-27 00:00:00.0000, 4.618810524456864E+08, -1.588216075368638E+08, 3.979768459845384E+07,
2460525.500000000, A.D. 2024-Aug-03 00:00:00.0000, 4.650264294704203E+08, -1.495602538939472E+08, 3.873063786875023E+07,
2460532.500000000, A.D. 2024-Aug-10 00:00:00.0000, 4.679799224572349E+08, -1.402372050596749E+08, 3.764760813417603E+07,
2460539.500000000, A.D. 2024-Aug-17 00:00:00.0000, 4.707402768346798E+08, -1.308562954408191E+08, 3.654903951724501E+07,
2460546.500000000, A.D. 2024-Aug-24 00:00:00.0000, 4.733063113026006E+08, -1.214213834936358E+08, 3.543538230858654E+07,
2460553.500000000, A.D. 2024-Aug-31 00:00:00.0000, 4.756769183703371E+08, -1.119363508425645E+08, 3.430709279327767E+07,
2460560.500000000, A.D. 2024-Sep-07 00:00:00.0000, 4.778510653850103E+08, -1.024051014316869E+08, 3.316463302575590E+07,
2460567.500000000, A.D. 2024-Sep-14 00:00:00.0000, 4.798277961340229E+08, -9.283155971171331E+07, 3.200847062644494E+07,
2460574.500000000, A.D. 2024-Sep-21 00:00:00.0000, 4.816062309936743E+08, -8.321966744874696E+07, 3.083907881992285E+07,
2460581.500000000, A.D. 2024-Sep-28 00:00:00.0000, 4.831855651373551E+08, -7.357338238283786E+07, 2.965693649560128E+07,
2460588.500000000, A.D. 2024-Oct-05 00:00:00.0000, 4.845650684719639E+08, -6.389667873458928E+07, 2.846252795407812E+07,
2460595.500000000, A.D. 2024-Oct-12 00:00:00.0000, 4.857440869412135E+08, -5.419354657849833E+07, 2.725634261557941E+07,
2460602.500000000, A.D. 2024-Oct-19 00:00:00.0000, 4.867220434455879E+08, -4.446799035301780E+07, 2.603887482907419E+07,
2460609.500000000, A.D. 2024-Oct-26 00:00:00.0000, 4.874984383474948E+08, -3.472402730847912E+07, 2.481062371969273E+07,
2460616.500000000, A.D. 2024-Nov-02 00:00:00.0000, 4.880728498196896E+08, -2.496568604120323E+07, 2.357209303883068E+07,
2460623.500000000, A.D. 2024-Nov-09 00:00:00.0000, 4.884449341341326E+08, -1.519700509313634E+07, 2.232379100985398E+07,
2460630.500000000, A.D. 2024-Nov-16 00:00:00.0000, 4.886144259175495E+08, -5.422031616942468E+06, 2.106623016710204E+07,
2460637.500000000, A.D. 2024-Nov-23 00:00:00.0000, 4.885811384206220E+08, 4.355179843080791E+06, 1.979992717979301E+07,
2460644.500000000, A.D. 2024-Nov-30 00:00:00.0000, 4.883449640082183E+08, 1.413056841085130E+07, 1.852540263808333E+07,
2460651.500000000, A.D. 2024-Dec-07 00:00:00.0000, 4.879058752876874E+08, 2.390006819935548E+07, 1.724318079686630E+07,
2460658.500000000, A.D. 2024-Dec-14 00:00:00.0000, 4.872639261838532E+08, 3.365961111784786E+07, 1.595378944036065E+07,
2460665.500000000, A.D. 2024-Dec-21 00:00:00.0000, 4.864192506423499E+08, 4.340512992680906E+07, 1.465775997914314E+07,
2460672.500000000, A.D. 2024-Dec-28 00:00:00.0000, 4.853720609352635E+08, 5.313255857375475E+07, 1.335562735658980E+07,
2460679.500000000, A.D. 2025-Jan-04 00:00:00.0000, 4.841226481661123E+08, 6.283783218608156E+07, 1.204792972086133E+07,
2460686.500000000, A.D. 2025-Jan-11 00:00:00.0000, 4.826713831530300E+08, 7.251688838125388E+07, 1.073520816546427E+07,
2460693.500000000, A.D. 2025-Jan-18 00:00:00.0000, 4.810187167740169E+08, 8.216566897541527E+07, 9.418006547783203E+06,
2460700.500000000, A.D. 2025-Jan-25 00:00:00.0000, 4.791651800180479E+08, 9.178012161534862E+07, 8.096871324730724E+06,
2460707.500000000, A.D. 2025-Feb-01 00:00:00.0000, 4.771113839312208E+08, 1.013562013031971E+08, 6.772351385860570E+06,
2460714.500000000, A.D. 2025-Feb-08 00:00:00.0000, 4.748580195157599E+08, 1.108898718333893E+08, 5.444997880356170E+06,
$$EOE